SCD 1                   
1 22490U 93009B   23115.38536748  .00000639  00000+0  12708-3 0  9992
2 22490  24.9692  94.0969 0042582 229.9893 262.2729 14.44901271594710
TECHSAT 1B (GO-32)      
1 25397U 98043D   23115.44713725  .00000194  00000+0  10446-3 0  9996
2 25397  98.8641  72.4627 0000455 345.7315  14.3850 14.23861460287827
SCD 2                   
1 25504U 98060A   23115.23613788  .00000627  00000+0  12709-3 0  9995
2 25504  24.9960 311.6967 0016985 231.6300 290.3033 14.44403832293967
LANDSAT 7               
1 25682U 99020A   23115.42709584  .00001676  00000+0  35793-3 0  9993
2 25682  97.9336 156.0189 0001308 107.1881 252.9473 14.60059556278088
DLR-TUBSAT              
1 25757U 99029B   23115.46388499  .00000272  00000+0  79514-4 0  9998
2 25757  98.5295  66.7489 0013268 245.2006 114.7809 14.51643068266546
TERRA                   
1 25994U 99068A   23116.08063958  .00000851  00000+0  19020-3 0  9991
2 25994  98.0970 185.7480 0001120 174.5790 245.8746 14.59186475242187
MAROC-TUBSAT            
1 27004U 01056D   23115.40692222 -.00000002  00000+0  49418-4 0  9996
2 27004  99.6717 261.5282 0019483 207.6854 173.7759 13.70174270 68866
AQUA                    
1 27424U 02022A   23115.78465795  .00001580  00000+0  35412-3 0  9999
2 27424  98.2833  60.3964 0001421  53.9478  32.7955 14.57984584115728
IRS-P6 (RESOURCESAT-1)  
1 28051U 03046A   23116.13592107  .00001037  00000+0  37650-3 0  9994
2 28051  98.3617 182.8645 0059336 166.0904 194.1949 14.34328224 15846
SHIYAN 1 (SY-1)         
1 28220U 04012A   23114.96560619  .00011420  00000+0  80588-3 0  9993
2 28220  97.9896 121.6859 0010819  16.3986 343.7587 15.05082485 36811
AURA                    
1 28376U 04026A   23115.52456447  .00001618  00000+0  36693-3 0  9992
2 28376  98.2161  59.9232 0001244  69.9111 290.2221 14.57394402998679
IRS-P5 (CARTOSAT-1)     
1 28649U 05017A   23115.57063567  .00002477  00000+0  29564-3 0  9991
2 28649  97.6714 170.2446 0000336 139.2723 220.8517 14.85101988973041
SINAH 1                 
1 28893U 05043D   23115.31023933  .00000838  00000+0  17619-3 0  9993
2 28893  98.1444 238.7047 0013765 275.6765  84.2866 14.62059387932512
EROS B                  
1 29079U 06014A   23115.52481777  .00037732  00000+0  15412-2 0  9997
2 29079  97.3448 236.0408 0012198 240.6718 183.6460 15.24216336943902
RESURS-DK 1             
1 29228U 06021A   23115.26318117  .00003860  00000+0  28102-3 0  9995
2 29228  69.9374  53.7447 0007404 286.4467  73.5880 15.04624751929258
ARIRANG-2 (KOMPSAT-2)   
1 29268U 06031A   23115.48814119  .00000737  00000+0  15217-3 0  9990
2 29268  97.9125 336.9911 0016199 109.8343 250.4618 14.63078742893512
LAPAN-TUBSAT            
1 29709U 07001A   23115.74789063  .00002060  00000+0  25974-3 0  9998
2 29709  98.0152  83.1234 0011678 327.0080  33.0407 14.83027968880784
CARTOSAT-2 (IRS-P7)     
1 29710U 07001B   23115.31074461  .00040350  00000+0  60611-3 0  9993
2 29710  97.8834 247.5610 0105286  33.1966 327.5829 15.48502745884114
HAIYANG-1B              
1 31113U 07010A   23115.47157248  .00000174  00000+0  82647-4 0  9999
2 31113  98.3000 131.6867 0013940  13.6645 346.4914 14.30417225836372
COSMO-SKYMED 1          
1 31598U 07023A   23115.50322041  .00001163  00000+0  15257-3 0  9990
2 31598  97.8874 299.7417 0001378  89.2535 270.8841 14.82166141859186
TERRASAR-X              
1 31698U 07026A   23112.44422123  .00002667  00000+0  13011-3 0  9992
2 31698  97.4441 120.6168 0001812  87.0336  50.4219 15.19157008879025
WORLDVIEW-1 (WV-1)      
1 32060U 07041A   23115.31669412  .00011947  00000+0  48172-3 0  9993
2 32060  97.3914 235.5064 0007260 120.8357 239.3596 15.24946989867906
YAOGAN 3                
1 32289U 07055A   23115.77149710  .00004012  00000+0  50425-3 0  9994
2 32289  97.9240 139.9908 0001447 113.4902 246.6458 14.82657219835299
COSMO-SKYMED 2          
1 32376U 07059A   23115.80701214  .00001375  00000+0  17923-3 0  9997
2 32376  97.8876 300.0419 0001142  88.7902 271.3461 14.82167825831973
RADARSAT-2              
1 32382U 07061A   23115.49612361  .00000208  00000+0  97723-4 0  9997
2 32382  98.5778 122.9068 0001199  92.5745  60.7082 14.29985874801890
CARTOSAT-2A             
1 32783U 08021A   23116.12004434  .00001879  00000+0  26296-3 0  9997
2 32783  97.9189 177.4138 0011750 230.8681 129.1500 14.78692329809221
HUANJING 1A (HJ-1A)     
1 33320U 08041A   23115.44602676  .00002229  00000+0  31210-3 0  9995
2 33320  97.6482 138.4079 0019342 298.9346  60.9926 14.78372283788472
HUANJING 1B (HJ-1B)     
1 33321U 08041B   23115.44786087  .00003444  00000+0  47274-3 0  9992
2 33321  97.6610 142.6056 0032476 316.9197  42.9478 14.78641533788475
GEOEYE 1                
1 33331U 08042A   23115.46775948  .00001301  00000+0  25345-3 0  9995
2 33331  98.0862 190.6298 0009315  29.8859 330.2884 14.64659765782033
THEOS                   
1 33396U 08049A   23116.13536623  .00000096  00000+0  65674-4 0  9993
2 33396  98.7052 184.7228 0001296  96.9653 320.4553 14.20074102755049
COSMO-SKYMED 3          
1 33412U 08054A   23116.08393346  .00007595  00000+0  72222-3 0  9992
2 33412  97.8912 305.4049 0018245 160.3653 199.8210 14.93618202784803
YAOGAN 4                
1 33446U 08061A   23115.41805826  .00002067  00000+0  29190-3 0  9999
2 33446  97.8489  51.6990 0015201 198.6297 161.4359 14.78154949775660
GOSAT (IBUKI)           
1 33492U 09002A   23115.28459323  .00001539  00000+0  27968-3 0  9992
2 33492  98.0412 230.4118 0001428  88.1538 271.9831 14.67563661762959
YAOGAN 6                
1 34839U 09021A   23115.47083358  .00010107  00000+0  30058-3 0  9996
2 34839  97.1230  87.5360 0021401 257.0695 102.8158 15.34695700778986
DEIMOS-1                
1 35681U 09041A   23116.11076346  .00001246  00000+0  20365-3 0  9999
2 35681  97.6883 315.6792 0000329  47.2588 312.8641 14.72473964737770
DUBAISAT-1              
1 35682U 09041B   23115.37380657  .00002410  00000+0  40981-3 0  9990
2 35682  97.8447 260.6509 0011730 148.7916 211.4026 14.69948286736099
OCEANSAT-2              
1 35931U 09051A   23115.44903097 -.00026671  00000+0 -18053-1 0  9995
2 35931  98.3125 198.4811 0013944 231.0119 128.9793 14.00323096718655
WORLDVIEW-2 (WV-2)      
1 35946U 09055A   23115.50148424  .00000410  00000+0  15137-3 0  9990
2 35946  98.4509 191.1473 0002896  89.9750 270.1776 14.37455267710746
SMOS                    
1 36036U 09059A   23116.11185569  .00000495  00000+0  17174-3 0  9990
2 36036  98.4444 304.1179 0001269  97.9004 262.2329 14.39751650708399
YAOGAN 7                
1 36110U 09069A   23115.54440477  .00001325  00000+0  20170-3 0  9995
2 36110  98.1637 343.7991 0026681 127.2049 233.1656 14.75458134720154
TANDEM-X                
1 36605U 10030A   23115.06997406  .00003970  00000+0  19208-3 0  9998
2 36605  97.4440 123.2067 0001810  90.4905 357.9226 15.19161647712171
CARTOSAT-2B             
1 36795U 10035A   23116.15749796  .00001995  00000+0  27875-3 0  9995
2 36795  97.9136 177.3834 0012212 315.3093  44.7115 14.78687700690276
YAOGAN 10               
1 36834U 10038A   23116.12216954  .00001973  00000+0  25648-3 0  9996
2 36834  97.9676 130.4420 0001257  99.2365 260.9002 14.81814165687079
COSMO-SKYMED 4          
1 37216U 10060A   23115.48213657  .00001358  00000+0  17705-3 0  9993
2 37216  97.8884 299.7220 0001358  87.5424 272.5899 14.82165358674476
RESOURCESAT-2           
1 37387U 11015A   23115.47655449  .00000625  00000+0  30451-3 0  9990
2 37387  98.6228 186.6902 0003521 235.5754 124.5107 14.21667713623491
HAIYANG-2A              
1 37781U 11043A   23115.48205359  .00000002  00000+0  44753-4 0  9991
2 37781  99.3218 120.9646 0001663  96.7996 263.3345 13.78752720588380
RASAT                   
1 37791U 11044D   23115.39715385  .00001759  00000+0  33281-3 0  9991
2 37791  98.0843 208.4894 0020965 223.4936 136.4622 14.65473093624791
SRMSAT                  
1 37841U 11058D   23115.54753352  .00000544  00000+0  15362-3 0  9996
2 37841  19.9705 168.2817 0011803 172.3973 337.4138 14.10878992595360
YAOGAN 13               
1 37941U 11072A   23116.19589186  .00017099  00000+0  64602-3 0  9991
2 37941  97.6756  77.3825 0003147  67.7360 346.2256 15.27063051632416
PLEIADES 1A             
1 38012U 11076F   23115.72342946  .00001309  00000+0  29131-3 0  9999
2 38012  98.1994 191.2478 0001632 105.3030 254.8332 14.58551006604598
ZIYUAN 1-02C (ZY 1-02C) 
1 38038U 11079A   23115.43686412  .00000925  00000+0  33190-3 0  9990
2 38038  98.5444 183.1365 0007779 129.7903 230.3974 14.36209607594257
ZIYUAN 3-1 (ZY 3-1)     
1 38046U 12001A   23116.15581451  .00015021  00000+0  63871-3 0  9994
2 38046  97.2982 183.7869 0004207 183.3505 260.6030 15.23112430627161
ARIRANG-3 (KOMPSAT-3)   
1 38338U 12025B   23115.44367694  .00001261  00000+0  26131-3 0  9995
2 38338  98.2167  57.8851 0011779 106.9028 253.3418 14.61903147583553
KANOPUS-V 1             
1 38707U 12039A   23115.37093835  .00020021  00000+0  71918-3 0  9993
2 38707  97.4762  41.5421 0002586  80.3227 279.8309 15.28691272596913
EXACTVIEW-1 (ADS-1B)    
1 38709U 12039C   23115.70829706  .00000248  00000+0  12784-3 0  9991
2 38709  98.9710 194.3468 0010127 237.0383 122.9821 14.24219864559189
SPOT 6                  
1 38755U 12047A   23115.80818901  .00001045  00000+0  23479-3 0  9996
2 38755  98.1909 183.9008 0001214  82.3410 277.7891 14.58525770565686
PLEIADES 1B             
1 39019U 12068A   23116.10072432  .00001308  00000+0  29116-3 0  9994
2 39019  98.1943 191.6225 0001421  97.7703 262.3663 14.58567596553507
GOKTURK 2               
1 39030U 12073A   23116.12584893  .00001246  00000+0  20074-3 0  9999
2 39030  97.8107 349.1183 0002116  97.8785 262.2675 14.73139491555380
LANDSAT 8               
1 39084U 13008A   23115.52710007  .00000727  00000+0  17140-3 0  9991
2 39084  98.1827 186.2275 0001311  89.9948 270.1401 14.57115356530624
SARAL                   
1 39086U 13009A   23115.56266554  .00000201  00000+0  90685-4 0  9994
2 39086  98.5484 301.6183 0003026  86.1202 274.0328 14.32180367531154
